{
    "links": {
        "self": "http://www.neowsapp.com/rest/v1/neo/3694454?api_key=iIulBulltgU6a56xZRHN4H3l9WmuAYTsLGpBGhQ2"
    },
    "id": "3694454",
    "neo_reference_id": "3694454",
    "name": "(2014 UT56)",
    "designation": "2014 UT56",
    "nasa_jpl_url": "http://ssd.jpl.nasa.gov/sbdb.cgi?sstr=3694454",
    "absolute_magnitude_h": 26.3,
    "estimated_diameter": {
        "kilometers": {
            "estimated_diameter_min": 0.0146067964,
            "estimated_diameter_max": 0.0326617897
        },
        "meters": {
            "estimated_diameter_min": 14.6067964271,
            "estimated_diameter_max": 32.6617897446
        },
        "miles": {
            "estimated_diameter_min": 0.0090762397,
            "estimated_diameter_max": 0.020295089
        },
        "feet": {
            "estimated_diameter_min": 47.92256199,
            "estimated_diameter_max": 107.1581062656
        }
    },
    "is_potentially_hazardous_asteroid": false,
    "close_approach_data": [
        {
            "close_approach_date": "2014-11-07",
            "close_approach_date_full": "2014-Nov-07 14:30",
            "epoch_date_close_approach": 1415370600000,
            "relative_velocity": {
                "kilometers_per_second": "9.8233732697",
                "kilometers_per_hour": "35364.1437710451",
                "miles_per_hour": "21973.9036670696"
            },
            "miss_distance": {
                "astronomical": "0.0391539945",
                "lunar": "15.2309038605",
                "kilometers": "5857354.179191715",
                "miles": "3639591.116867067"
            },
            "orbiting_body": "Earth"
        }
    ],
    "orbital_data": {
        "orbit_id": "5",
        "orbit_determination_date": "2017-04-06 08:37:56",
        "first_observation_date": "2014-10-24",
        "last_observation_date": "2014-10-29",
        "data_arc_in_days": 5,
        "observations_used": 15,
        "orbit_uncertainty": "8",
        "minimum_orbit_intersection": ".0389641",
        "jupiter_tisserand_invariant": "3.898",
        "epoch_osculation": "2456958.5",
        "eccentricity": ".4805435490785412",
        "semi_major_axis": "1.810447694610328",
        "inclination": "8.399874587495168",
        "ascending_node_longitude": "32.81636900889247",
        "orbital_period": "889.7692653626605",
        "perihelion_distance": ".940448734021218",
        "perihelion_argument": "51.44438409702114",
        "aphelion_distance": "2.680446655199438",
        "perihelion_time": "2457000.321273996746",
        "mean_anomaly": "343.0791428464412",
        "mean_motion": ".4045992753562552",
        "equinox": "J2000",
        "orbit_class": {
            "orbit_class_type": "APO",
            "orbit_class_description": "Near-Earth asteroid orbits which cross the Earth’s orbit similar to that of 1862 Apollo",
            "orbit_class_range": "a (semi-major axis) > 1.0 AU; q (perihelion) < 1.017 AU"
        }
    },
    "is_sentry_object": false
}